0 ATS 5
1 04068U 69069A   13283.30264064 -.00000054  00000-0  10000-3 0  4472
2 04068 009.9878 317.9811 0005927 206.1533 153.7544 00.99495020 88827
0 ATS 5
1 04068U 69069A   13283.30266369  .00000000  00000-0  10000-3 0  4483
2 04068 009.9887 317.9860 0005608 200.8411 159.0865 00.99491045 88821
0 ATS 5
1 04068U 69069A   13286.31772389 -.00000126  00000-0  10000-3 0  4481
2 04068 009.9841 317.9556 0005972 205.9458 153.9572 00.99496047 88852
0 ATS 5
1 04068U 69069A   13290.33773651 -.00000215  00000-0  10000-3 0  4491
2 04068 009.9789 317.9204 0005856 206.6770 153.2023 00.99496994 88898
0 ATS 5
1 04068U 69069A   13294.35779979 -.00000282  00000-0  10000-3 0  4502
2 04068 009.9736 317.8875 0005839 206.8944 152.9825 00.99497161 88937
